ONEWEB-0638             
1 55802U 23029G   26161.08576310 -.00000231  00000+0 -65845-3 0  9990
2 55802  87.8950 291.1679 0001926  83.6691 276.4658 13.14502733158466
ONEWEB-0639             
1 55803U 23029H   26161.13258975  .00000008  00000+0 -12287-4 0  9995
2 55803  87.9163 306.3818 0000995 117.9347 242.1887 13.19724807157974
ONEWEB-0640             
1 55804U 23029J   26161.09527672 -.00000137  00000+0 -40318-3 0  9993
2 55804  87.8949 291.1571 0001553  78.9181 281.2123 13.14503101158487
ONEWEB-0641             
1 55805U 23029K   26161.12784129  .00000083  00000+0  17554-3 0  9994
2 55805  87.9170 306.3714 0001698 100.6748 259.4577 13.19724309157989
ONEWEB-0642             
1 55806U 23029L   26161.12310865  .00000037  00000+0  59370-4 0  9999
2 55806  87.9166 306.3846 0001286 121.9606 238.1652 13.19724240157974
ONEWEB-0643             
1 55807U 23029M   26161.06515403 -.00000005  00000+0 -48006-4 0  9999
2 55807  87.8952 291.1501 0001634 121.3551 238.7739 13.14502669158456
ONEWEB-0644             
1 55808U 23029N   26161.11836285  .00000053  00000+0  99398-4 0  9991
2 55808  87.9164 306.3870 0001596 107.0048 253.1260 13.19724126157975
ONEWEB-0645             
1 55809U 23029P   26161.14047420  .00000029  00000+0  40041-4 0  9994
2 55809  87.9163 306.3796 0001392  93.0521 267.0771 13.19723694157976
ONEWEB-0646             
1 55810U 23029Q   26161.15786355 -.00000002  00000+0 -37473-4 0  9992
2 55810  87.9163 306.3764 0001638 105.2944 254.8370 13.19724762157966
ONEWEB-0648             
1 55811U 23029R   26161.10953289  .00000200  00000+0  50529-3 0  9994
2 55811  87.8958 291.1142 0000934 105.7273 254.3960 13.14504776158469
ONEWEB-0649             
1 55812U 23029S   26161.10730823  .00000051  00000+0  94780-4 0  9994
2 55812  87.9163 306.3840 0001573  97.5677 262.5634 13.19724910157994
ONEWEB-0650             
1 55813U 23029T   26161.10255792 -.00000063  00000+0 -19077-3 0  9992
2 55813  87.9163 306.3876 0001372 110.1365 249.9915 13.19724838157964
ONEWEB-0652             
1 55814U 23029U   26161.09050907 -.00000182  00000+0 -52647-3 0  9994
2 55814  87.8956 291.1256 0002036  99.8447 260.2912 13.14504713158438
ONEWEB-0653             
1 55815U 23029V   26161.07465581 -.00000222  00000+0 -63384-3 0  9996
2 55815  87.8959 291.1265 0001898  97.0892 263.0454 13.14502984158464
ONEWEB-0654             
1 55816U 23029W   26161.06990195 -.00000167  00000+0 -48543-3 0  9998
2 55816  87.8959 291.1235 0002177  93.6971 266.4407 13.14503814158483
ONEWEB-0656             
1 55817U 23029X   26161.08327526  .00000001  00000+0 -29602-4 0  9995
2 55817  87.9194 275.8453 0002335  95.0673 265.0727 13.20772594160212
ONEWEB-0657             
1 55818U 23029Y   26161.09783856 -.00000075  00000+0 -22043-3 0  9992
2 55818  87.9162 306.3872 0002448 106.9777 253.1624 13.19725103157970
ONEWEB-0658             
1 55819U 23029Z   26161.09309749 -.00000059  00000+0 -17910-3 0  9997
2 55819  87.9171 306.3631 0001539 107.8217 252.3084 13.19724679157982
ONEWEB-0660             
1 55820U 23029AA  26161.12382134  .00000219  00000+0  55527-3 0  9994
2 55820  87.8968 291.1054 0001585  93.9621 266.1690 13.14502845158477
ONEWEB-0661             
1 55821U 23029AB  26161.08259359 -.00000228  00000+0 -64960-3 0  9995
2 55821  87.8948 291.1599 0001716  91.7376 268.3951 13.14502456158459
ONEWEB-0662             
1 55822U 23029AC  26161.11748024  .00000261  00000+0  66823-3 0  9997
2 55822  87.8947 291.1590 0001580  94.3938 265.7373 13.14502194158506
ONEWEB-0663             
1 55823U 23029AD  26161.04174033  .00000036  00000+0  56639-4 0  9998
2 55823  87.9192 275.9254 0001504 101.8439 258.2863 13.20868412160209
ONEWEB-0664             
1 55824U 23029AE  26161.06979566 -.00000014  00000+0 -67221-4 0  9992
2 55824  87.9177 275.9017 0001917  85.9881 274.1471 13.20770018160207
ONEWEB-0665             
1 55825U 23029AF  26161.07942311 -.00000249  00000+0 -70650-3 0  9991
2 55825  87.8948 291.1410 0001555  97.1679 262.9627 13.14502796158471
ONEWEB-0666             
1 55826U 23029AG  26161.06306592  .00000039  00000+0  63778-4 0  9995
2 55826  87.9180 275.8928 0002570 109.9435 250.1975 13.20770872160213
ONEWEB-0667             
1 55827U 23029AH  26161.05802307  .00000026  00000+0  30994-4 0  9990
2 55827  87.9195 275.8509 0001809  96.7550 263.3789 13.20771238160205
ONEWEB-0669             
1 55828U 23029AJ  26161.05296897  .00000040  00000+0  66008-4 0  9993
2 55828  87.9189 275.8634 0002377  90.3844 269.7562 13.20771260160209
ONEWEB-0670             
1 55829U 23029AK  26160.90498835 -.00000016  00000+0 -77191-4 0  9993
2 55829  87.8950 291.1933 0001762  86.7484 273.3848 13.14502347158479
ONEWEB-0671             
1 55830U 23029AL  26161.16416380  .00000021  00000+0  19465-4 0  9993
2 55830  87.9164 306.3754 0001692  94.2701 265.8626 13.19723755157974
ONEWEB-0672             
1 55831U 23029AM  26161.04791313  .00000014  00000+0  29137-5 0  9993
2 55831  87.9188 275.8577 0002227 101.3194 258.8190 13.20771910160201
