OBJECT_NAME,OBJECT_ID,EPOCH,MEAN_MOTION,ECCENTRICITY,INCLINATION,RA_OF_ASC_NODE,ARG_OF_PERICENTER,MEAN_ANOMALY,EPHEMERIS_TYPE,CLASSIFICATION_TYPE,NORAD_CAT_ID,ELEMENT_SET_NO,REV_AT_EPOCH,BSTAR,MEAN_MOTION_DOT,MEAN_MOTION_DDOT
ONEWEB-0638,2023-029G,2026-06-10T02:03:29.931840,13.14502733,.00019266,87.8950,291.1679,83.6691,276.4658,0,U,55802,999,15846,-.65845331E-3,-.231E-5,0
ONEWEB-0639,2023-029H,2026-06-10T03:10:55.754400,13.19724807,.00009952,87.9163,306.3818,117.9347,242.1887,0,U,55803,999,15797,-.12286506E-4,.8E-7,0
ONEWEB-0640,2023-029J,2026-06-10T02:17:11.908608,13.14503101,.00015537,87.8949,291.1571,78.9181,281.2123,0,U,55804,999,15848,-.40317654E-3,-.137E-5,0
ONEWEB-0641,2023-029K,2026-06-10T03:04:05.487456,13.19724309,.00016983,87.9170,306.3714,100.6748,259.4577,0,U,55805,999,15798,.17553887E-3,.83E-6,0
ONEWEB-0642,2023-029L,2026-06-10T02:57:16.587360,13.19724240,.00012868,87.9166,306.3846,121.9606,238.1652,0,U,55806,999,15797,.59369867E-4,.37E-6,0
ONEWEB-0643,2023-029M,2026-06-10T01:33:49.308192,13.14502669,.00016347,87.8952,291.1501,121.3551,238.7739,0,U,55807,999,15845,-.48005934E-4,-.5E-7,0
ONEWEB-0644,2023-029N,2026-06-10T02:50:26.550240,13.19724126,.00015966,87.9164,306.3870,107.0048,253.1260,0,U,55808,999,15797,.99398413E-4,.53E-6,0
ONEWEB-0645,2023-029P,2026-06-10T03:22:16.970880,13.19723694,.00013924,87.9163,306.3796,93.0521,267.0771,0,U,55809,999,15797,.4004086E-4,.29E-6,0
ONEWEB-0646,2023-029Q,2026-06-10T03:47:19.410720,13.19724762,.00016386,87.9163,306.3764,105.2944,254.8370,0,U,55810,999,15796,-.3747337E-4,-.2E-7,0
ONEWEB-0648,2023-029R,2026-06-10T02:37:43.641696,13.14504776,.00009348,87.8958,291.1142,105.7273,254.3960,0,U,55811,999,15846,.50529475E-3,.2E-5,0
ONEWEB-0649,2023-029S,2026-06-10T02:34:31.431072,13.19724910,.00015732,87.9163,306.3840,97.5677,262.5634,0,U,55812,999,15799,.94779798E-4,.51E-6,0
ONEWEB-0650,2023-029T,2026-06-10T02:27:41.004288,13.19724838,.00013729,87.9163,306.3876,110.1365,249.9915,0,U,55813,999,15796,-.19077034E-3,-.63E-6,0
ONEWEB-0652,2023-029U,2026-06-10T02:10:19.983648,13.14504713,.00020369,87.8956,291.1256,99.8447,260.2912,0,U,55814,999,15843,-.52646992E-3,-.182E-5,0
ONEWEB-0653,2023-029V,2026-06-10T01:47:30.261984,13.14502984,.00018984,87.8959,291.1265,97.0892,263.0454,0,U,55815,999,15846,-.63383726E-3,-.222E-5,0
ONEWEB-0654,2023-029W,2026-06-10T01:40:39.528480,13.14503814,.00021771,87.8959,291.1235,93.6971,266.4407,0,U,55816,999,15848,-.48543495E-3,-.167E-5,0
ONEWEB-0656,2023-029X,2026-06-10T01:59:54.982464,13.20772594,.00023357,87.9194,275.8453,95.0673,265.0727,0,U,55817,999,16021,-.29602498E-4,.1E-7,0
ONEWEB-0657,2023-029Y,2026-06-10T02:20:53.251584,13.19725103,.00024488,87.9162,306.3872,106.9777,253.1624,0,U,55818,999,15797,-.22042822E-3,-.75E-6,0
ONEWEB-0658,2023-029Z,2026-06-10T02:14:03.623136,13.19724679,.0001539,87.9171,306.3631,107.8217,252.3084,0,U,55819,999,15798,-.17910391E-3,-.59E-6,0
ONEWEB-0660,2023-029AA,2026-06-10T02:58:18.163776,13.14502845,.00015854,87.8968,291.1054,93.9621,266.1690,0,U,55820,999,15847,.55527038E-3,.219E-5,0
ONEWEB-0661,2023-029AB,2026-06-10T01:58:56.086176,13.14502456,.00017162,87.8948,291.1599,91.7376,268.3951,0,U,55821,999,15845,-.64959759E-3,-.228E-5,0
ONEWEB-0662,2023-029AC,2026-06-10T02:49:10.292736,13.14502194,.00015809,87.8947,291.1590,94.3938,265.7373,0,U,55822,999,15850,.66823342E-3,.261E-5,0
ONEWEB-0663,2023-029AD,2026-06-10T01:00:06.364512,13.20868412,.00015041,87.9192,275.9254,101.8439,258.2863,0,U,55823,999,16020,.56639434E-4,.36E-6,0
ONEWEB-0664,2023-029AE,2026-06-10T01:40:30.345024,13.20770018,.00019173,87.9177,275.9017,85.9881,274.1471,0,U,55824,999,16020,-.67221239E-4,-.14E-6,0
ONEWEB-0665,2023-029AF,2026-06-10T01:54:22.156704,13.14502796,.00015551,87.8948,291.1410,97.1679,262.9627,0,U,55825,999,15847,-.70650347E-3,-.249E-5,0
ONEWEB-0666,2023-029AG,2026-06-10T01:30:48.895488,13.20770872,.00025706,87.9180,275.8928,109.9435,250.1975,0,U,55826,999,16021,.63778101E-4,.39E-6,0
ONEWEB-0667,2023-029AH,2026-06-10T01:23:33.193248,13.20771238,.00018098,87.9195,275.8509,96.7550,263.3789,0,U,55827,999,16020,.30993751E-4,.26E-6,0
ONEWEB-0669,2023-029AJ,2026-06-10T01:16:16.519008,13.20771260,.00023773,87.9189,275.8634,90.3844,269.7562,0,U,55828,999,16020,.66008124E-4,.4E-6,0
ONEWEB-0670,2023-029AK,2026-06-09T21:43:10.993440,13.14502347,.00017621,87.8950,291.1933,86.7484,273.3848,0,U,55829,999,15847,-.77190881E-4,-.16E-6,0
ONEWEB-0671,2023-029AL,2026-06-10T03:56:23.752320,13.19723755,.00016923,87.9164,306.3754,94.2701,265.8626,0,U,55830,999,15797,.19464549E-4,.21E-6,0
ONEWEB-0672,2023-029AM,2026-06-10T01:08:59.694432,13.20771910,.00022274,87.9188,275.8577,101.3194,258.8190,0,U,55831,999,16020,.2913662E-5,.14E-6,0
